[
    {
        "Altitude(m)": 561736.5861484392,
        "Argument of Periapsis(deg)": 0.019868973332140504,
        "Eccentricity": 0.0,
        "Inclination(deg)": 53.0,
        "Latitude(deg)": -28.013738168960444,
        "Longitude(deg)": 41.117372746451345,
        "Mean Anomaly(deg)": -144.27062139726726,
        "RAAN(deg)": 299.97043010558406,
        "Satellite Name": "Starlink Shell 1 1331",
        "Satellite Number": 1331,
        "Semi-Major Axis(m)": 6931778.249405717,
        "Time(s)": 570
    },
    {
        "Altitude(m)": 561910.599716014,
        "Argument of Periapsis(deg)": 0.02021755181165174,
        "Eccentricity": 0.0,
        "Inclination(deg)": 53.0,
        "Latitude(deg)": -28.47324692143344,
        "Longitude(deg)": 41.55984538099922,
        "Mean Anomaly(deg)": -143.6437901937105,
        "RAAN(deg)": 299.9699113355066,
        "Satellite Name": "Starlink Shell 1 1331",
        "Satellite Number": 1331,
        "Semi-Major Axis(m)": 6931778.249405717,
        "Time(s)": 580
    },
    {
        "Altitude(m)": 562084.9945823285,
        "Argument of Periapsis(deg)": 0.020566130291162974,
        "Eccentricity": 0.0,
        "Inclination(deg)": 53.0,
        "Latitude(deg)": -28.930975677107277,
        "Longitude(deg)": 42.00649633316808,
        "Mean Anomaly(deg)": -143.01695899015385,
        "RAAN(deg)": 299.96939256542913,
        "Satellite Name": "Starlink Shell 1 1331",
        "Satellite Number": 1331,
        "Semi-Major Axis(m)": 6931778.249405717,
        "Time(s)": 590
    },
    {
        "Altitude(m)": 562259.7059097161,
        "Argument of Periapsis(deg)": 0.020914708770674213,
        "Eccentricity": 0.0,
        "Inclination(deg)": 53.0,
        "Latitude(deg)": -29.386876068602845,
        "Longitude(deg)": 42.45742605760765,
        "Mean Anomaly(deg)": -142.3901277865971,
        "RAAN(deg)": 299.9688737953516,
        "Satellite Name": "Starlink Shell 1 1331",
        "Satellite Number": 1331,
        "Semi-Major Axis(m)": 6931778.249405717,
        "Time(s)": 600
    },
    {
        "Altitude(m)": 562434.6685722299,
        "Argument of Periapsis(deg)": 0.021263287250185448,
        "Eccentricity": 0.0,
        "Inclination(deg)": 53.0,
        "Latitude(deg)": -29.840898651539234,
        "Longitude(deg)": 42.91273630355743,
        "Mean Anomaly(deg)": -141.7632965830404,
        "RAAN(deg)": 299.9683550252742,
        "Satellite Name": "Starlink Shell 1 1331",
        "Satellite Number": 1331,
        "Semi-Major Axis(m)": 6931778.249405717,
        "Time(s)": 610
    },
    {
        "Altitude(m)": 562609.8171848563,
        "Argument of Periapsis(deg)": 0.021611865729696686,
        "Eccentricity": 0.0,
        "Inclination(deg)": 53.0,
        "Latitude(deg)": -30.292992873964938,
        "Longitude(deg)": 43.3725306114157,
        "Mean Anomaly(deg)": -141.13646537948367,
        "RAAN(deg)": 299.96783625519674,
        "Satellite Name": "Starlink Shell 1 1331",
        "Satellite Number": 1331,
        "Semi-Major Axis(m)": 6931778.249405717,
        "Time(s)": 620
    },
    {
        "Altitude(m)": 562785.0861328505,
        "Argument of Periapsis(deg)": 0.02196044420920792,
        "Eccentricity": 0.0,
        "Inclination(deg)": 53.0,
        "Latitude(deg)": -30.743107045407488,
        "Longitude(deg)": 43.83691312470028,
        "Mean Anomaly(deg)": -140.509634175927,
        "RAAN(deg)": 299.9673174851192,
        "Satellite Name": "Starlink Shell 1 1331",
        "Satellite Number": 1331,
        "Semi-Major Axis(m)": 6931778.249405717,
        "Time(s)": 630
    },
    {
        "Altitude(m)": 562960.4096011367,
        "Argument of Periapsis(deg)": 0.02230902268871916,
        "Eccentricity": 0.0,
        "Inclination(deg)": 53.0,
        "Latitude(deg)": -31.191188305568954,
        "Longitude(deg)": 44.30598991953141,
        "Mean Anomaly(deg)": -139.88280297237023,
        "RAAN(deg)": 299.96679871504176,
        "Satellite Name": "Starlink Shell 1 1331",
        "Satellite Number": 1331,
        "Semi-Major Axis(m)": 6931778.249405717,
        "Time(s)": 640
    },
    {
        "Altitude(m)": 563135.7216038323,
        "Argument of Periapsis(deg)": 0.022657601168230398,
        "Eccentricity": 0.0,
        "Inclination(deg)": 53.0,
        "Latitude(deg)": -31.637182592711866,
        "Longitude(deg)": 44.77986780841308,
        "Mean Anomaly(deg)": -139.2559717688135,
        "RAAN(deg)": 299.9662799449643,
        "Satellite Name": "Starlink Shell 1 1331",
        "Satellite Number": 1331,
        "Semi-Major Axis(m)": 6931778.249405717,
        "Time(s)": 650
    },
    {
        "Altitude(m)": 563310.9560137939,
        "Argument of Periapsis(deg)": 0.023006179647741636,
        "Eccentricity": 0.0,
        "Inclination(deg)": 53.0,
        "Latitude(deg)": -32.081034611771614,
        "Longitude(deg)": 45.258654820405134,
        "Mean Anomaly(deg)": -138.62914056525682,
        "RAAN(deg)": 299.96576117488684,
        "Satellite Name": "Starlink Shell 1 1331",
        "Satellite Number": 1331,
        "Semi-Major Axis(m)": 6931778.249405717,
        "Time(s)": 660
    },
    {
        "Altitude(m)": 563486.0465922676,
        "Argument of Periapsis(deg)": 0.023354758127252868,
        "Eccentricity": 0.0,
        "Inclination(deg)": 53.0,
        "Latitude(deg)": -32.522687802246026,
        "Longitude(deg)": 45.74246067636715,
        "Mean Anomaly(deg)": -138.00230936170013,
        "RAAN(deg)": 299.9652424048093,
        "Satellite Name": "Starlink Shell 1 1331",
        "Satellite Number": 1331,
        "Semi-Major Axis(m)": 6931778.249405717,
        "Time(s)": 670
    },
    {
        "Altitude(m)": 563660.927018535,
        "Argument of Periapsis(deg)": 0.023703336606764106,
        "Eccentricity": 0.0,
        "Inclination(deg)": 53.0,
        "Latitude(deg)": -32.962084305917685,
        "Longitude(deg)": 46.2313957460308,
        "Mean Anomaly(deg)": -137.37547815814332,
        "RAAN(deg)": 299.96472363473185,
        "Satellite Name": "Starlink Shell 1 1331",
        "Satellite Number": 1331,
        "Semi-Major Axis(m)": 6931778.249405717,
        "Time(s)": 680
    },
    {
        "Altitude(m)": 563835.5309196161,
        "Argument of Periapsis(deg)": 0.024051915086275345,
        "Eccentricity": 0.0,
        "Inclination(deg)": 53.0,
        "Latitude(deg)": -33.39916493446516,
        "Longitude(deg)": 46.72557151225663,
        "Mean Anomaly(deg)": -136.74864695458663,
        "RAAN(deg)": 299.9642048646544,
        "Satellite Name": "Starlink Shell 1 1331",
        "Satellite Number": 1331,
        "Semi-Major Axis(m)": 6931778.249405717,
        "Time(s)": 690
    },
    {
        "Altitude(m)": 564009.7918999754,
        "Argument of Periapsis(deg)": 0.024400493565786583,
        "Eccentricity": 0.0,
        "Inclination(deg)": 53.0,
        "Latitude(deg)": -33.8338691370335,
        "Longitude(deg)": 47.22510102919706,
        "Mean Anomaly(deg)": -136.12181575102997,
        "RAAN(deg)": 299.96368609457693,
        "Satellite Name": "Starlink Shell 1 1331",
        "Satellite Number": 1331,
        "Semi-Major Axis(m)": 6931778.249405717,
        "Time(s)": 700
    },
    {
        "Altitude(m)": 564183.6435712171,
        "Argument of Periapsis(deg)": 0.024749072045297815,
        "Eccentricity": 0.0,
        "Inclination(deg)": 53.0,
        "Latitude(deg)": -34.26613496783852,
        "Longitude(deg)": 47.73009786105973,
        "Mean Anomaly(deg)": -135.49498454747322,
        "RAAN(deg)": 299.96316732449947,
        "Satellite Name": "Starlink Shell 1 1331",
        "Satellite Number": 1331,
        "Semi-Major Axis(m)": 6931778.249405717,
        "Time(s)": 710
    },
    {
        "Altitude(m)": 564357.0195817897,
        "Argument of Periapsis(deg)": 0.025097650524809053,
        "Eccentricity": 0.0,
        "Inclination(deg)": 53.0,
        "Latitude(deg)": -34.695899053885285,
        "Longitude(deg)": 48.24067652677266,
        "Mean Anomaly(deg)": -134.86815334391645,
        "RAAN(deg)": 299.96264855442195,
        "Satellite Name": "Starlink Shell 1 1331",
        "Satellite Number": 1331,
        "Semi-Major Axis(m)": 6931778.249405717,
        "Time(s)": 720
    },
    {
        "Altitude(m)": 564529.8536466185,
        "Argument of Periapsis(deg)": 0.02544622900432029,
        "Eccentricity": 0.0,
        "Inclination(deg)": 53.0,
        "Latitude(deg)": -35.123096562892506,
        "Longitude(deg)": 48.75695293720784,
        "Mean Anomaly(deg)": -134.24132214035978,
        "RAAN(deg)": 299.9621297843445,
        "Satellite Name": "Starlink Shell 1 1331",
        "Satellite Number": 1331,
        "Semi-Major Axis(m)": 6931778.249405717,
        "Time(s)": 730
    },
    {
        "Altitude(m)": 564702.0795767449,
        "Argument of Periapsis(deg)": 0.02579480748383153,
        "Eccentricity": 0.0,
        "Inclination(deg)": 53.0,
        "Latitude(deg)": -35.54766117152555,
        "Longitude(deg)": 49.27904331160586,
        "Mean Anomaly(deg)": -133.61449093680307,
        "RAAN(deg)": 299.9616110142671,
        "Satellite Name": "Starlink Shell 1 1331",
        "Satellite Number": 1331,
        "Semi-Major Axis(m)": 6931778.249405717,
        "Time(s)": 740
    },
    {
        "Altitude(m)": 564873.6313088717,
        "Argument of Periapsis(deg)": 0.026143385963342765,
        "Eccentricity": 0.0,
        "Inclination(deg)": 53.0,
        "Latitude(deg)": -35.96952503404244,
        "Longitude(deg)": 49.80706459843816,
        "Mean Anomaly(deg)": -132.9876597332463,
        "RAAN(deg)": 299.96109224418956,
        "Satellite Name": "Starlink Shell 1 1331",
        "Satellite Number": 1331,
        "Semi-Major Axis(m)": 6931778.249405717,
        "Time(s)": 750
    }
]